$$SOE
2460154.500000000, A.D. 2023-Jul-29 00:00:00.0000, -1.943766336337002E+08, -2.342379519277980E+08, 4.459080080379969E+07,
2460161.500000000, A.D. 2023-Aug-05 00:00:00.0000, -1.823128508808494E+08, -2.408164457105840E+08, 4.438208584840526E+07,
2460168.500000000, A.D. 2023-Aug-12 00:00:00.0000, -1.699381914628047E+08, -2.469841009796256E+08, 4.409766214945072E+07,
2460175.500000000, A.D. 2023-Aug-19 00:00:00.0000, -1.572672336029610E+08, -2.527209036706201E+08, 4.373631977763623E+07,
2460182.500000000, A.D. 2023-Aug-26 00:00:00.0000, -1.443161039234431E+08, -2.580072455309592E+08, 4.329702704492295E+07,
2460189.500000000, A.D. 2023-Sep-02 00:00:00.0000, -1.311024944562740E+08, -2.628240689691768E+08, 4.277894947773672E+07,
2460196.500000000, A.D. 2023-Sep-09 00:00:00.0000, -1.176456644843446E+08, -2.671530200472463E+08, 4.218146848828096E+07,
2460203.500000000, A.D. 2023-Sep-16 00:00:00.0000, -1.039664252569297E+08, -2.709766079960081E+08, 4.150419937183595E+07,
2460210.500000000, A.D. 2023-Sep-23 00:00:00.0000, -9.008710555883262E+07, -2.742783689052407E+08, 4.074700823176391E+07,
2460217.500000000, A.D. 2023-Sep-30 00:00:00.0000, -7.603149713463920E+07, -2.770430299641932E+08, 3.991002755419953E+07,
2460224.500000000, A.D. 2023-Oct-07 00:00:00.0000, -6.182478133432627E+07, -2.792566720202761E+08, 3.899367018491332E+07,
2460231.500000000, A.D. 2023-Oct-14 00:00:00.0000, -4.749343538495710E+07, -2.809068907082074E+08, 3.799864092441744E+07,
2460238.500000000, A.D. 2023-Oct-21 00:00:00.0000, -3.306511501420426E+07, -2.819829512785257E+08, 3.692594517660804E+07,
2460245.500000000, A.D. 2023-Oct-28 00:00:00.0000, -1.856851537555834E+07, -2.824759314784337E+08, 3.577689460059775E+07,
2460252.500000000, A.D. 2023-Nov-04 00:00:00.0000, -4.033212660237219E+06, -2.823788498584811E+08, 3.455310950117451E+07,
2460259.500000000, A.D. 2023-Nov-11 00:00:00.0000, 1.051051202106655E+07, -2.816867768245835E+08, 3.325651764239894E+07,
2460266.500000000, A.D. 2023-Nov-18 00:00:00.0000, 2.503186433139530E+07, -2.803969254669235E+08, 3.188934928941776E+07,
2460273.500000000, A.D. 2023-Nov-25 00:00:00.0000, 3.949974110526738E+07, -2.785087194880781E+08, 3.045412839635511E+07,
2460280.500000000, A.D. 2023-Dec-02 00:00:00.0000, 5.388294404493356E+07, -2.760238360901265E+08, 2.895365996161395E+07,
2460287.500000000, A.D. 2023-Dec-09 00:00:00.0000, 6.815039896953957E+07, -2.729462223425555E+08, 2.739101367202187E+07,
2460294.500000000, A.D. 2023-Dec-16 00:00:00.0000, 8.227137681599382E+07, -2.692820841751875E+08, 2.576950405081268E+07,
2460301.500000000, A.D. 2023-Dec-23 00:00:00.0000, 9.621571253251386E+07, -2.650398472052969E+08, 2.409266747259842E+07,
2460308.500000000, A.D. 2023-Dec-30 00:00:00.0000, 1.099540163558342E+08, -2.602300890002854E+08, 2.236423667992467E+07,
2460315.500000000, A.D. 2024-Jan-06 00:00:00.0000, 1.234578717255258E+08, -2.548654465191659E+08, 2.058811326872844E+07,
2460322.500000000, A.D. 2024-Jan-13 00:00:00.0000, 1.367000193772075E+08, -2.489605026017672E+08, 1.876833825587974E+07,
2460329.500000000, A.D. 2024-Jan-20 00:00:00.0000, 1.496545256770458E+08, -2.425316510813915E+08, 1.690906145497042E+07,
2460336.500000000, A.D. 2024-Jan-27 00:00:00.0000, 1.622969305753617E+08, -2.355969430096466E+08, 1.501451049699530E+07,
2460343.500000000, A.D. 2024-Feb-03 00:00:00.0000, 1.746043727968390E+08, -2.281759184273133E+08, 1.308896004300131E+07,
2460350.500000000, A.D. 2024-Feb-10 00:00:00.0000, 1.865556912691757E+08, -2.202894276616184E+08, 1.113670169290468E+07,
2460357.500000000, A.D. 2024-Feb-17 00:00:00.0000, 1.981315023363687E+08, -2.119594458947198E+08, 9.162015082705542E+06,
2460364.500000000, A.D. 2024-Feb-24 00:00:00.0000, 2.093142528549117E+08, -2.032088846707243E+08, 7.169140608968288E+06,
2460371.500000000, A.D. 2024-Mar-02 00:00:00.0000, 2.200882498637463E+08, -1.940614038634230E+08, 5.162254142240837E+06,
2460378.500000000, A.D. 2024-Mar-09 00:00:00.0000, 2.304396681542885E+08, -1.845412273620068E+08, 3.145443998961933E+06,
2460385.500000000, A.D. 2024-Mar-16 00:00:00.0000, 2.403565377652332E+08, -1.746729651047624E+08, 1.122690359356344E+06,
2460392.500000000, A.D. 2024-Mar-23 00:00:00.0000, 2.498287132665169E+08, -1.644814427679205E+08, -9.021526392324269E+05,
2460399.500000000, A.D. 2024-Mar-30 00:00:00.0000, 2.588478247824419E+08, -1.539915411046389E+08, -2.925371877269134E+06,
2460406.500000000, A.D. 2024-Apr-06 00:00:00.0000, 2.674072133259513E+08, -1.432280497970841E+08, -4.943407611051500E+06,
2460413.500000000, A.D. 2024-Apr-13 00:00:00.0000, 2.755018563662251E+08, -1.322155360195616E+08, -6.952863544084184E+06,
2460420.500000000, A.D. 2024-Apr-20 00:00:00.0000, 2.831282850415517E+08, -1.209782256545183E+08, -8.950514424004681E+06,
2460427.500000000, A.D. 2024-Apr-27 00:00:00.0000, 2.902844937868551E+08, -1.095398979769053E+08, -1.093331122707973E+07,
2460434.500000000, A.D. 2024-May-04 00:00:00.0000, 2.969698446059639E+08, -9.792379444674814E+07, -1.289838418017763E+07,
2460441.500000000, A.D. 2024-May-11 00:00:00.0000, 3.031849681775520E+08, -8.615254137301067E+07, -1.484304385496009E+07,
2460448.500000000, A.D. 2024-May-18 00:00:00.0000, 3.089316636120226E+08, -7.424808585758364E+07, -1.676478055557333E+07,
2460455.500000000, A.D. 2024-May-25 00:00:00.0000, 3.142127983969554E+08, -6.223164427601523E+07, -1.866126222100189E+07,
2460462.500000000, A.D. 2024-Jun-01 00:00:00.0000, 3.190322098816582E+08, -5.012366247228213E+07, -2.053033106706969E+07,
2460469.500000000, A.D. 2024-Jun-08 00:00:00.0000, 3.233946096180933E+08, -3.794378672631826E+07, -2.236999919902694E+07,
2460476.500000000, A.D. 2024-Jun-15 00:00:00.0000, 3.273054918189257E+08, -2.571084393512734E+07, -2.417844338078838E+07,
2460483.500000000, A.D. 2024-Jun-22 00:00:00.0000, 3.307710456055183E+08, -1.344282880135007E+07, -2.595399895177186E+07,
2460490.500000000, A.D. 2024-Jun-29 00:00:00.0000, 3.337980694360912E+08, -1.156898840204453E+06, -2.769515301003336E+07,
2460497.500000000, A.D. 2024-Jul-06 00:00:00.0000, 3.363938907046478E+08, 1.113062129688684E+07, -2.940053745427472E+07,
2460504.500000000, A.D. 2024-Jul-13 00:00:00.0000, 3.385662926646290E+08, 2.340422993662456E+07, -3.106892196263930E+07,
2460511.500000000, A.D. 2024-Jul-20 00:00:00.0000, 3.403234467868955E+08, 3.564923495705215E+07, -3.269920674536248E+07,
2460518.500000000, A.D. 2024-Jul-27 00:00:00.0000, 3.416738498974363E+08, 4.785173666370156E+07, -3.429041518686384E+07,
2460525.500000000, A.D. 2024-Aug-03 00:00:00.0000, 3.426262662898550E+08, 5.999860732585448E+07, -3.584168651529324E+07,
2460532.500000000, A.D. 2024-Aug-10 00:00:00.0000, 3.431896748375170E+08, 7.207746802870257E+07, -3.735226858351043E+07,
2460539.500000000, A.D. 2024-Aug-17 00:00:00.0000, 3.433732209636397E+08, 8.407666345232183E+07, -3.882151081984054E+07,
2460546.500000000, A.D. 2024-Aug-24 00:00:00.0000, 3.431861732728894E+08, 9.598523507563837E+07, -4.024885739751995E+07,
2460553.500000000, A.D. 2024-Aug-31 00:00:00.0000, 3.426378847118020E+08, 1.077928931985584E+08, -4.163384067320579E+07,
2460560.500000000, A.D. 2024-Sep-07 00:00:00.0000, 3.417377583591664E+08, 1.194899883001898E+08, -4.297607494388229E+07,
2460567.500000000, A.D. 2024-Sep-14 00:00:00.0000, 3.404952176545576E+08, 1.310674830628220E+08, -4.427525046637274E+07,
2460574.500000000, A.D. 2024-Sep-21 00:00:00.0000, 3.389196787568248E+08, 1.425169257617809E+08, -4.553112753041199E+07,
2460581.500000000, A.D. 2024-Sep-28 00:00:00.0000, 3.370205242786152E+08, 1.538304220351387E+08, -4.674353081156360E+07,
2460588.500000000, A.D. 2024-Oct-05 00:00:00.0000, 3.348070818038251E+08, 1.650006052268968E+08, -4.791234434306484E+07,
2460595.500000000, A.D. 2024-Oct-12 00:00:00.0000, 3.322886065659115E+08, 1.760206084394169E+08, -4.903750682700387E+07,
2460602.500000000, A.D. 2024-Oct-19 00:00:00.0000, 3.294742662876138E+08, 1.868840381507289E+08, -5.011900714024970E+07,
2460609.500000000, A.D. 2024-Oct-26 00:00:00.0000, 3.263731279156018E+08, 1.975849486939870E+08, -5.115688008943538E+07,
2460616.500000000, A.D. 2024-Nov-02 00:00:00.0000, 3.229941462870172E+08, 2.081178175255812E+08, -5.215120244082971E+07,
2460623.500000000, A.D. 2024-Nov-09 00:00:00.0000, 3.193461546188803E+08, 2.184775213577356E+08, -5.310208922139914E+07,
2460630.500000000, A.D. 2024-Nov-16 00:00:00.0000, 3.154378566562940E+08, 2.286593131940743E+08, -5.400969028215738E+07,
2460637.500000000, A.D. 2024-Nov-23 00:00:00.0000, 3.112778203522030E+08, 2.386588002416840E+08, -5.487418712081572E+07,
2460644.500000000, A.D. 2024-Nov-30 00:00:00.0000, 3.068744731282647E+08, 2.484719226674293E+08, -5.569578997495579E+07,
2460651.500000000, A.D. 2024-Dec-07 00:00:00.0000, 3.022360989919191E+08, 2.580949336171083E+08, -5.647473517837260E+07,
2460658.500000000, A.D. 2024-Dec-14 00:00:00.0000, 2.973708366867784E+08, 2.675243817069665E+08, -5.721128260487361E+07,
2460665.500000000, A.D. 2024-Dec-21 00:00:00.0000, 2.922866764316465E+08, 2.767570947269744E+08, -5.790571307462849E+07,
2460672.500000000, A.D. 2024-Dec-28 00:00:00.0000, 2.869914571103322E+08, 2.857901615668231E+08, -5.855832613436610E+07,
2460679.500000000, A.D. 2025-Jan-04 00:00:00.0000, 2.814928664091444E+08, 2.946209147097197E+08, -5.916943824325474E+07,
2460686.500000000, A.D. 2025-Jan-11 00:00:00.0000, 2.757984419841130E+08, 3.032469149197830E+08, -5.973938104845050E+07,
2460693.500000000, A.D. 2025-Jan-18 00:00:00.0000, 2.699155726544816E+08, 3.116659371732926E+08, -6.026849972926502E+07,
2460700.500000000, A.D. 2025-Jan-25 00:00:00.0000, 2.638514997917302E+08, 3.198759573290417E+08, -6.075715146090523E+07,
2460707.500000000, A.D. 2025-Feb-01 00:00:00.0000, 2.576133190296881E+08, 3.278751394757383E+08, -6.120570400861979E+07,
2460714.500000000, A.D. 2025-Feb-08 00:00:00.0000, 2.512079822977254E+08, 3.356618239417233E+08, -6.161453444739734E+07,
2460721.500000000, A.D. 2025-Feb-15 00:00:00.0000, 2.446423001547958E+08, 3.432345159109929E+08, -6.198402800295588E+07,
$$EOE